1998-067XU              
1 66908U 98067XU  26023.44871410  .00119587  00000+0  15487-2 0  9998
2 66908  51.6283 294.3096 0003258 105.8280 254.3072 15.57991789  8104
SILVERSAT               
1 66909U 98067XV  26023.17912440  .00129236  00000+0  16152-2 0  9990
2 66909  51.6290 295.5096 0003616 118.3306 241.8052 15.58894116  8063
1998-067XW              
1 66910U 98067XW  26023.76055991  .00111531  00000+0  14283-2 0  9998
2 66910  51.6281 292.6395 0001959  99.1605 260.9609 15.58327191  8155
1998-067XX              
1 66911U 98067XX  26023.73729486  .00147002  00000+0  17544-2 0  9998
2 66911  51.6275 292.4844 0002321 130.5456 229.5740 15.60041611  8143
1998-067XY              
1 66912U 98067XY  26023.02742103  .00070113  00000+0  98264-3 0  9999
2 66912  51.6302 296.7470 0002983  85.1246 275.0086 15.56115873  8026
